ONEWEB-0564             
1 55801U 23029F   26199.19566657  .00000009  00000+0 -94451-5 0  9994
2 55801  87.9174 268.2721 0001723  92.6397 267.4934 13.20772421165246
ONEWEB-0638             
1 55802U 23029G   26199.22077161  .00000328  00000+0  84990-3 0  9994
2 55802  87.8954 283.5658 0001489 105.6773 254.4521 13.14504298163472
ONEWEB-0639             
1 55803U 23029H   26199.26841907 -.00000138  00000+0 -37607-3 0  9990
2 55803  87.9186 298.7869 0002703 117.3925 242.7483 13.19725097163005
ONEWEB-0640             
1 55804U 23029J   26199.23029203  .00000338  00000+0  87805-3 0  9990
2 55804  87.8956 283.5547 0001718 119.5207 240.6094 13.14502827163494
ONEWEB-0641             
1 55805U 23029K   26199.26369985  .00001071  00000+0  26427-2 0  9995
2 55805  87.9193 298.7791 0002095 105.8981 254.2383 13.19721967163017
ONEWEB-0642             
1 55806U 23029L   26199.03150810  .00000024  00000+0  26786-4 0  9993
2 55806  87.9187 298.8353 0002741 111.2002 248.9423 13.19726250162978
ONEWEB-0643             
1 55807U 23029M   26199.20016455 -.00000035  00000+0 -13024-3 0  9993
2 55807  87.8954 283.5483 0002701 104.8649 255.2780 13.14502926163465
ONEWEB-0644             
1 55808U 23029N   26199.25422262  .00000025  00000+0  29614-4 0  9996
2 55808  87.9183 298.7917 0002339 105.1526 254.9866 13.19725883163001
ONEWEB-0645             
1 55809U 23029P   26198.82143369 -.00000058  00000+0 -17612-3 0  9999
2 55809  87.9187 298.8747 0002115 114.5204 245.6150 13.19725788162946
ONEWEB-0646             
1 55810U 23029Q   26199.21788036  .00000051  00000+0  94954-4 0  9997
2 55810  87.9185 298.7965 0002306 103.9085 256.2304 13.19727066162982
ONEWEB-0648             
1 55811U 23029R   26199.16844171  .00000031  00000+0  48465-4 0  9999
2 55811  87.8968 283.5311 0002489 120.9190 239.2185 13.14503370163463
ONEWEB-0649             
1 55812U 23029S   26199.24314772  .00000058  00000+0  11210-3 0  9994
2 55812  87.9187 298.7895 0002097 108.6605 251.4755 13.19726197163022
ONEWEB-0650             
1 55813U 23029T   26198.78351454  .00000049  00000+0  89589-4 0  9996
2 55813  87.9183 298.8831 0002542 110.5011 249.6395 13.19725834162933
ONEWEB-0652             
1 55814U 23029U   26199.14941741  .00000196  00000+0  49363-3 0  9990
2 55814  87.8965 283.5417 0001983  94.2561 265.8796 13.14502674163439
ONEWEB-0653             
1 55815U 23029V   26198.98132092  .00000076  00000+0  17007-3 0  9990
2 55815  87.8967 283.5734 0001948  99.6004 260.5346 13.14501800163440
ONEWEB-0654             
1 55816U 23029W   26198.67209005  .00000094  00000+0  21962-3 0  9991
2 55816  87.8965 283.6309 0001791  92.1463 267.9872 13.14502274163420
