{"fetched_at":"2026-07-18T17:29:31.619Z","source":"https://celestrak.org/NORAD/elements/gp.php?GROUP=oneweb&FORMAT=JSON","constellation":"oneweb","records":[{"OBJECT_NAME":"ONEWEB-0564","OBJECT_ID":"2023-029F","EPOCH":"2026-07-18T04:41:45.591648","CLASSIFICATION_TYPE":"U","MEAN_MOTION":13.20772421,"ECCENTRICITY":0.00017238,"INCLINATION":87.9174,"RA_OF_ASC_NODE":268.2721,"ARG_OF_PERICENTER":92.6397,"MEAN_ANOMALY":267.4934,"EPHEMERIS_TYPE":0,"NORAD_CAT_ID":55801,"ELEMENT_SET_NO":999,"REV_AT_EPOCH":16524,"BSTAR":-0.000009445071,"MEAN_MOTION_DOT":9e-8,"MEAN_MOTION_DDOT":0},{"OBJECT_NAME":"ONEWEB-0638","OBJECT_ID":"2023-029G","EPOCH":"2026-07-18T05:17:54.667104","CLASSIFICATION_TYPE":"U","MEAN_MOTION":13.14504298,"ECCENTRICITY":0.00014897,"INCLINATION":87.8954,"RA_OF_ASC_NODE":283.5658,"ARG_OF_PERICENTER":105.6773,"MEAN_ANOMALY":254.4521,"EPHEMERIS_TYPE":0,"NORAD_CAT_ID":55802,"ELEMENT_SET_NO":999,"REV_AT_EPOCH":16347,"BSTAR":0.00084990423,"MEAN_MOTION_DOT":0.00000328,"MEAN_MOTION_DDOT":0},{"OBJECT_NAME":"ONEWEB-0639","OBJECT_ID":"2023-029H","EPOCH":"2026-07-18T06:26:31.407648","CLASSIFICATION_TYPE":"U","MEAN_MOTION":13.19725097,"ECCENTRICITY":0.00027034,"INCLINATION":87.9186,"RA_OF_ASC_NODE":298.7869,"ARG_OF_PERICENTER":117.3925,"MEAN_ANOMALY":242.7483,"EPHEMERIS_TYPE":0,"NORAD_CAT_ID":55803,"ELEMENT_SET_NO":999,"REV_AT_EPOCH":16300,"BSTAR":-0.000376073,"MEAN_MOTION_DOT":-0.00000138,"MEAN_MOTION_DDOT":0},{"OBJECT_NAME":"ONEWEB-0640","OBJECT_ID":"2023-029J","EPOCH":"2026-07-18T05:31:37.231392","CLASSIFICATION_TYPE":"U","MEAN_MOTION":13.14502827,"ECCENTRICITY":0.00017181,"INCLINATION":87.8956,"RA_OF_ASC_NODE":283.5547,"ARG_OF_PERICENTER":119.5207,"MEAN_ANOMALY":240.6094,"EPHEMERIS_TYPE":0,"NORAD_CAT_ID":55804,"ELEMENT_SET_NO":999,"REV_AT_EPOCH":16349,"BSTAR":0.0008780544,"MEAN_MOTION_DOT":0.00000338,"MEAN_MOTION_DDOT":0},{"OBJECT_NAME":"ONEWEB-0641","OBJECT_ID":"2023-029K","EPOCH":"2026-07-18T06:19:43.667040","CLASSIFICATION_TYPE":"U","MEAN_MOTION":13.19721967,"ECCENTRICITY":0.00020953,"INCLINATION":87.9193,"RA_OF_ASC_NODE":298.7791,"ARG_OF_PERICENTER":105.8981,"MEAN_ANOMALY":254.2383,"EPHEMERIS_TYPE":0,"NORAD_CAT_ID":55805,"ELEMENT_SET_NO":999,"REV_AT_EPOCH":16301,"BSTAR":0.0026426655,"MEAN_MOTION_DOT":0.00001071,"MEAN_MOTION_DDOT":0},{"OBJECT_NAME":"ONEWEB-0642","OBJECT_ID":"2023-029L","EPOCH":"2026-07-18T00:45:22.299840","CLASSIFICATION_TYPE":"U","MEAN_MOTION":13.1972625,"ECCENTRICITY":0.00027413,"INCLINATION":87.9187,"RA_OF_ASC_NODE":298.8353,"ARG_OF_PERICENTER":111.2002,"MEAN_ANOMALY":248.9423,"EPHEMERIS_TYPE":0,"NORAD_CAT_ID":55806,"ELEMENT_SET_NO":999,"REV_AT_EPOCH":16297,"BSTAR":0.000026786433,"MEAN_MOTION_DOT":2.4e-7,"MEAN_MOTION_DDOT":0},{"OBJECT_NAME":"ONEWEB-0643","OBJECT_ID":"2023-029M","EPOCH":"2026-07-18T04:48:14.217120","CLASSIFICATION_TYPE":"U","MEAN_MOTION":13.14502926,"ECCENTRICITY":0.00027017,"INCLINATION":87.8954,"RA_OF_ASC_NODE":283.5483,"ARG_OF_PERICENTER":104.8649,"MEAN_ANOMALY":255.278,"EPHEMERIS_TYPE":0,"NORAD_CAT_ID":55807,"ELEMENT_SET_NO":999,"REV_AT_EPOCH":16346,"BSTAR":-0.00013024033,"MEAN_MOTION_DOT":-3.5e-7,"MEAN_MOTION_DDOT":0},{"OBJECT_NAME":"ONEWEB-0644","OBJECT_ID":"2023-029N","EPOCH":"2026-07-18T06:06:04.834368","CLASSIFICATION_TYPE":"U","MEAN_MOTION":13.19725883,"ECCENTRICITY":0.00023398,"INCLINATION":87.9183,"RA_OF_ASC_NODE":298.7917,"ARG_OF_PERICENTER":105.1526,"MEAN_ANOMALY":254.9866,"EPHEMERIS_TYPE":0,"NORAD_CAT_ID":55808,"ELEMENT_SET_NO":999,"REV_AT_EPOCH":16300,"BSTAR":0.00002961391,"MEAN_MOTION_DOT":2.5e-7,"MEAN_MOTION_DDOT":0},{"OBJECT_NAME":"ONEWEB-0645","OBJECT_ID":"2023-029P","EPOCH":"2026-07-17T19:42:51.870816","CLASSIFICATION_TYPE":"U","MEAN_MOTION":13.19725788,"ECCENTRICITY":0.00021158,"INCLINATION":87.9187,"RA_OF_ASC_NODE":298.8747,"ARG_OF_PERICENTER":114.5204,"MEAN_ANOMALY":245.615,"EPHEMERIS_TYPE":0,"NORAD_CAT_ID":55809,"ELEMENT_SET_NO":999,"REV_AT_EPOCH":16294,"BSTAR":-0.00017611763,"MEAN_MOTION_DOT":-5.8e-7,"MEAN_MOTION_DDOT":0},{"OBJECT_NAME":"ONEWEB-0646","OBJECT_ID":"2023-029Q","EPOCH":"2026-07-18T05:13:44.863104","CLASSIFICATION_TYPE":"U","MEAN_MOTION":13.19727066,"ECCENTRICITY":0.00023063,"INCLINATION":87.9185,"RA_OF_ASC_NODE":298.7965,"ARG_OF_PERICENTER":103.9085,"MEAN_ANOMALY":256.2304,"EPHEMERIS_TYPE":0,"NORAD_CAT_ID":55810,"ELEMENT_SET_NO":999,"REV_AT_EPOCH":16298,"BSTAR":0.000094954143,"MEAN_MOTION_DOT":5.1e-7,"MEAN_MOTION_DDOT":0},{"OBJECT_NAME":"ONEWEB-0648","OBJECT_ID":"2023-029R","EPOCH":"2026-07-18T04:02:33.363744","CLASSIFICATION_TYPE":"U","MEAN_MOTION":13.1450337,"ECCENTRICITY":0.00024892,"INCLINATION":87.8968,"RA_OF_ASC_NODE":283.5311,"ARG_OF_PERICENTER":120.919,"MEAN_ANOMALY":239.2185,"EPHEMERIS_TYPE":0,"NORAD_CAT_ID":55811,"ELEMENT_SET_NO":999,"REV_AT_EPOCH":16346,"BSTAR":0.00004846501,"MEAN_MOTION_DOT":3.1e-7,"MEAN_MOTION_DDOT":0},{"OBJECT_NAME":"ONEWEB-0649","OBJECT_ID":"2023-029S","EPOCH":"2026-07-18T05:50:07.963008","CLASSIFICATION_TYPE":"U","MEAN_MOTION":13.19726197,"ECCENTRICITY":0.00020977,"INCLINATION":87.9187,"RA_OF_ASC_NODE":298.7895,"ARG_OF_PERICENTER":108.6605,"MEAN_ANOMALY":251.4755,"EPHEMERIS_TYPE":0,"NORAD_CAT_ID":55812,"ELEMENT_SET_NO":999,"REV_AT_EPOCH":16302,"BSTAR":0.00011210273,"MEAN_MOTION_DOT":5.8e-7,"MEAN_MOTION_DDOT":0},{"OBJECT_NAME":"ONEWEB-0650","OBJECT_ID":"2023-029T","EPOCH":"2026-07-17T18:48:15.656256","CLASSIFICATION_TYPE":"U","MEAN_MOTION":13.19725834,"ECCENTRICITY":0.00025425,"INCLINATION":87.9183,"RA_OF_ASC_NODE":298.8831,"ARG_OF_PERICENTER":110.5011,"MEAN_ANOMALY":249.6395,"EPHEMERIS_TYPE":0,"NORAD_CAT_ID":55813,"ELEMENT_SET_NO":999,"REV_AT_EPOCH":16293,"BSTAR":0.000089588892,"MEAN_MOTION_DOT":4.9e-7,"MEAN_MOTION_DDOT":0},{"OBJECT_NAME":"ONEWEB-0652","OBJECT_ID":"2023-029U","EPOCH":"2026-07-18T03:35:09.664224","CLASSIFICATION_TYPE":"U","MEAN_MOTION":13.14502674,"ECCENTRICITY":0.00019835,"INCLINATION":87.8965,"RA_OF_ASC_NODE":283.5417,"ARG_OF_PERICENTER":94.2561,"MEAN_ANOMALY":265.8796,"EPHEMERIS_TYPE":0,"NORAD_CAT_ID":55814,"ELEMENT_SET_NO":999,"REV_AT_EPOCH":16343,"BSTAR":0.00049362978,"MEAN_MOTION_DOT":0.00000196,"MEAN_MOTION_DDOT":0},{"OBJECT_NAME":"ONEWEB-0653","OBJECT_ID":"2023-029V","EPOCH":"2026-07-17T23:33:06.127488","CLASSIFICATION_TYPE":"U","MEAN_MOTION":13.145018,"ECCENTRICITY":0.00019489,"INCLINATION":87.8967,"RA_OF_ASC_NODE":283.5734,"ARG_OF_PERICENTER":99.6004,"MEAN_ANOMALY":260.5346,"EPHEMERIS_TYPE":0,"NORAD_CAT_ID":55815,"ELEMENT_SET_NO":999,"REV_AT_EPOCH":16344,"BSTAR":0.00017007199,"MEAN_MOTION_DOT":7.6e-7,"MEAN_MOTION_DDOT":0},{"OBJECT_NAME":"ONEWEB-0654","OBJECT_ID":"2023-029W","EPOCH":"2026-07-17T16:07:48.580320","CLASSIFICATION_TYPE":"U","MEAN_MOTION":13.14502274,"ECCENTRICITY":0.00017913,"INCLINATION":87.8965,"RA_OF_ASC_NODE":283.6309,"ARG_OF_PERICENTER":92.1463,"MEAN_ANOMALY":267.9872,"EPHEMERIS_TYPE":0,"NORAD_CAT_ID":55816,"ELEMENT_SET_NO":999,"REV_AT_EPOCH":16342,"BSTAR":0.00021962009,"MEAN_MOTION_DOT":9.4e-7,"MEAN_MOTION_DDOT":0}]}
